[{
    "OBJECT_NAME": "STARLINK-1627",
    "OBJECT_ID": "2020-057BD",
    "EPOCH": "2020-09-09T12:00:00.999648",
    "MEAN_MOTION": 15.628024,
    "ECCENTRICITY": 0.000192,
    "INCLINATION": 52.9994,
    "RA_OF_ASC_NODE": 332.7317,
    "ARG_OF_PERICENTER": 307.2224,
    "MEAN_ANOMALY": 167.6732,
    "EPHEMERIS_TYPE": 0,
    "CLASSIFICATION_TYPE": "U",
    "NORAD_CAT_ID": 46168,
    "ELEMENT_SET_NO": 999,
    "REV_AT_EPOCH": 412,
    "BSTAR": -0.0012034,
    "MEAN_MOTION_DOT": -0.00109471,
    "MEAN_MOTION_DDOT": 0
},{
    "OBJECT_NAME": "STARLINK-1628",
    "OBJECT_ID": "2020-057BE",
    "EPOCH": "2020-09-09T12:00:00.999648",
    "MEAN_MOTION": 15.62759837,
    "ECCENTRICITY": 0.0001304,
    "INCLINATION": 53.0011,
    "RA_OF_ASC_NODE": 332.7227,
    "ARG_OF_PERICENTER": 50.9819,
    "MEAN_ANOMALY": 63.09,
    "EPHEMERIS_TYPE": 0,
    "CLASSIFICATION_TYPE": "U",
    "NORAD_CAT_ID": 46169,
    "ELEMENT_SET_NO": 999,
    "REV_AT_EPOCH": 412,
    "BSTAR": 1.218e-5,
    "MEAN_MOTION_DOT": 5.81e-6,
    "MEAN_MOTION_DDOT": 0
},{
    "OBJECT_NAME": "STARLINK-1632",
    "OBJECT_ID": "2020-057BF",
    "EPOCH": "2020-09-09T06:00:00.999648",
    "MEAN_MOTION": 15.62743284,
    "ECCENTRICITY": 0.0001181,
    "INCLINATION": 52.9998,
    "RA_OF_ASC_NODE": 333.9554,
    "ARG_OF_PERICENTER": 57.1276,
    "MEAN_ANOMALY": 93.0302,
    "EPHEMERIS_TYPE": 0,
    "CLASSIFICATION_TYPE": "U",
    "NORAD_CAT_ID": 46170,
    "ELEMENT_SET_NO": 999,
    "REV_AT_EPOCH": 177,
    "BSTAR": -0.00041591,
    "MEAN_MOTION_DOT": -0.00038422,
    "MEAN_MOTION_DDOT": 0
},{
    "OBJECT_NAME": "STARLINK-1633",
    "OBJECT_ID": "2020-057BG",
    "EPOCH": "2020-09-09T06:00:00.999648",
    "MEAN_MOTION": 15.66246831,
    "ECCENTRICITY": 0.000144,
    "INCLINATION": 52.998,
    "RA_OF_ASC_NODE": 333.6341,
    "ARG_OF_PERICENTER": 67.286,
    "MEAN_ANOMALY": 235.045,
    "EPHEMERIS_TYPE": 0,
    "CLASSIFICATION_TYPE": "U",
    "NORAD_CAT_ID": 46171,
    "ELEMENT_SET_NO": 999,
    "REV_AT_EPOCH": 182,
    "BSTAR": 0.0002359,
    "MEAN_MOTION_DOT": 0.00024324,
    "MEAN_MOTION_DDOT": 0
},{
    "OBJECT_NAME": "STARLINK-1635",
    "OBJECT_ID": "2020-057BH",
    "EPOCH": "2020-09-09T06:00:00.999648",
    "MEAN_MOTION": 15.66296746,
    "ECCENTRICITY": 0.0001216,
    "INCLINATION": 53.0001,
    "RA_OF_ASC_NODE": 333.6195,
    "ARG_OF_PERICENTER": 62.7862,
    "MEAN_ANOMALY": 250.0635,
    "EPHEMERIS_TYPE": 0,
    "CLASSIFICATION_TYPE": "U",
    "NORAD_CAT_ID": 46172,
    "ELEMENT_SET_NO": 999,
    "REV_AT_EPOCH": 182,
    "BSTAR": 0.00023557,
    "MEAN_MOTION_DOT": 0.00024338,
    "MEAN_MOTION_DDOT": 0
},{
    "OBJECT_NAME": "STARLINK-1640",
    "OBJECT_ID": "2020-057BJ",
    "EPOCH": "2020-09-09T12:00:00.999648",
    "MEAN_MOTION": 15.62740782,
    "ECCENTRICITY": 0.0001501,
    "INCLINATION": 53.002,
    "RA_OF_ASC_NODE": 332.7242,
    "ARG_OF_PERICENTER": 64.1551,
    "MEAN_ANOMALY": 58.8581,
    "EPHEMERIS_TYPE": 0,
    "CLASSIFICATION_TYPE": "U",
    "NORAD_CAT_ID": 46173,
    "ELEMENT_SET_NO": 999,
    "REV_AT_EPOCH": 412,
    "BSTAR": -3.4699e-5,
    "MEAN_MOTION_DOT": -3.709e-5,
    "MEAN_MOTION_DDOT": 0
},{
    "OBJECT_NAME": "STARLINK-1641",
    "OBJECT_ID": "2020-057BK",
    "EPOCH": "2020-09-09T12:00:00.999648",
    "MEAN_MOTION": 15.59597763,
    "ECCENTRICITY": 0.0001611,
    "INCLINATION": 52.9999,
    "RA_OF_ASC_NODE": 332.7719,
    "ARG_OF_PERICENTER": 43.003,
    "MEAN_ANOMALY": 69.1367,
    "EPHEMERIS_TYPE": 0,
    "CLASSIFICATION_TYPE": "U",
    "NORAD_CAT_ID": 46174,
    "ELEMENT_SET_NO": 999,
    "REV_AT_EPOCH": 412,
    "BSTAR": -0.014415,
    "MEAN_MOTION_DOT": -0.01063683,
    "MEAN_MOTION_DDOT": 0
},{
    "OBJECT_NAME": "FALCON 9 DEB",
    "OBJECT_ID": "2020-057BL",
    "EPOCH": "2020-09-09T10:35:45.384864",
    "MEAN_MOTION": 16.10922373,
    "ECCENTRICITY": 0.0065216,
    "INCLINATION": 52.9873,
    "RA_OF_ASC_NODE": 328.7953,
    "ARG_OF_PERICENTER": 123.2989,
    "MEAN_ANOMALY": 237.4313,
    "EPHEMERIS_TYPE": 0,
    "CLASSIFICATION_TYPE": "U",
    "NORAD_CAT_ID": 46175,
    "ELEMENT_SET_NO": 999,
    "REV_AT_EPOCH": 351,
    "BSTAR": 0.00034406,
    "MEAN_MOTION_DOT": 0.0049988,
    "MEAN_MOTION_DDOT": 1.1608e-5
},{
    "OBJECT_NAME": "FALCON 9 DEB",
    "OBJECT_ID": "2020-057BM",
    "EPOCH": "2020-09-08T16:39:01.586304",
    "MEAN_MOTION": 16.11659453,
    "ECCENTRICITY": 0.0067346,
    "INCLINATION": 52.9899,
    "RA_OF_ASC_NODE": 332.6936,
    "ARG_OF_PERICENTER": 118.7771,
    "MEAN_ANOMALY": 242.0049,
    "EPHEMERIS_TYPE": 0,
    "CLASSIFICATION_TYPE": "U",
    "NORAD_CAT_ID": 46176,
    "ELEMENT_SET_NO": 999,
    "REV_AT_EPOCH": 339,
    "BSTAR": 0.00039244,
    "MEAN_MOTION_DOT": 0.0061965,
    "MEAN_MOTION_DDOT": 1.1629e-5
},{
    "OBJECT_NAME": "FALCON 9 DEB",
    "OBJECT_ID": "2020-057BN",
    "EPOCH": "2020-09-09T10:56:43.901952",
    "MEAN_MOTION": 16.20461477,
    "ECCENTRICITY": 0.0050075,
    "INCLINATION": 52.9899,
    "RA_OF_ASC_NODE": 328.1531,
    "ARG_OF_PERICENTER": 122.5576,
    "MEAN_ANOMALY": 238.0312,
    "EPHEMERIS_TYPE": 0,
    "CLASSIFICATION_TYPE": "U",
    "NORAD_CAT_ID": 46177,
    "ELEMENT_SET_NO": 999,
    "REV_AT_EPOCH": 352,
    "BSTAR": 0.00043495,
    "MEAN_MOTION_DOT": 0.01186455,
    "MEAN_MOTION_DDOT": 1.1838e-5
},{
    "OBJECT_NAME": "FALCON 9 DEB",
    "OBJECT_ID": "2020-057BP",
    "EPOCH": "2020-09-09T10:26:02.717952",
    "MEAN_MOTION": 16.25900021,
    "ECCENTRICITY": 0.003825,
    "INCLINATION": 52.9906,
    "RA_OF_ASC_NODE": 328.0102,
    "ARG_OF_PERICENTER": 118.8901,
    "MEAN_ANOMALY": 241.5985,
    "EPHEMERIS_TYPE": 0,
    "CLASSIFICATION_TYPE": "U",
    "NORAD_CAT_ID": 46178,
    "ELEMENT_SET_NO": 999,
    "REV_AT_EPOCH": 352,
    "BSTAR": 0.00046562,
    "MEAN_MOTION_DOT": 0.01839457,
    "MEAN_MOTION_DDOT": 1.1972e-5
},{
    "OBJECT_NAME": "SKYSAT-C17",
    "OBJECT_ID": "2020-057BQ",
    "EPOCH": "2020-09-09T10:51:30.813408",
    "MEAN_MOTION": 15.70628662,
    "ECCENTRICITY": 0.0011807,
    "INCLINATION": 53.0017,
    "RA_OF_ASC_NODE": 331.8988,
    "ARG_OF_PERICENTER": 30.1588,
    "MEAN_ANOMALY": 330.0106,
    "EPHEMERIS_TYPE": 0,
    "CLASSIFICATION_TYPE": "U",
    "NORAD_CAT_ID": 46179,
    "ELEMENT_SET_NO": 999,
    "REV_AT_EPOCH": 306,
    "BSTAR": 5.678e-5,
    "MEAN_MOTION_DOT": 6.568e-5,
    "MEAN_MOTION_DDOT": 0
},{
    "OBJECT_NAME": "SKYSAT-C18",
    "OBJECT_ID": "2020-057BR",
    "EPOCH": "2020-09-08T14:26:26.976768",
    "MEAN_MOTION": 15.88100276,
    "ECCENTRICITY": 0.0066045,
    "INCLINATION": 52.9995,
    "RA_OF_ASC_NODE": 335.0923,
    "ARG_OF_PERICENTER": 117.4856,
    "MEAN_ANOMALY": 243.2902,
    "EPHEMERIS_TYPE": 0,
    "CLASSIFICATION_TYPE": "U",
    "NORAD_CAT_ID": 46180,
    "ELEMENT_SET_NO": 999,
    "REV_AT_EPOCH": 297,
    "BSTAR": 9.8933e-5,
    "MEAN_MOTION_DOT": 0.00029921,
    "MEAN_MOTION_DDOT": 1.1404e-5
},{
    "OBJECT_NAME": "2020-058A",
    "OBJECT_ID": "2020-058A",
    "EPOCH": "2020-09-09T05:25:18.787296",
    "MEAN_MOTION": 15.23941956,
    "ECCENTRICITY": 0.001674,
    "INCLINATION": 97.5023,
    "RA_OF_ASC_NODE": 300.7399,
    "ARG_OF_PERICENTER": 202.956,
    "MEAN_ANOMALY": 197.4716,
    "EPHEMERIS_TYPE": 0,
    "CLASSIFICATION_TYPE": "U",
    "NORAD_CAT_ID": 46232,
    "ELEMENT_SET_NO": 999,
    "REV_AT_EPOCH": 260,
    "BSTAR": 0,
    "MEAN_MOTION_DOT": -7.4e-7,
    "MEAN_MOTION_DDOT": 0
}]
